HAWK-2B                 
1 47508U 21006CZ  26068.67629241  .00009474  00000+0  29651-3 0  9991
2 47508  97.2334 114.1140 0007102 185.9063 174.2098 15.33301353284246
STARLINK-35626          
1 66233U 25244AD  26068.74494057  .00026339  00000+0  89801-3 0  9990
2 66233  53.1561 229.9556 0000822  75.7174 284.3918 15.30209034 21661
